[
    {
        "CCSDS_OMM_VERS": "3.0",
        "COMMENT": "GENERATED VIA SPACE-TRACK.ORG API",
        "CREATION_DATE": "2025-04-12T22:09:39",
        "ORIGINATOR": "18 SPCS",
        "OBJECT_NAME": "BEIDOU 3M20",
        "OBJECT_ID": "2019-090B",
        "CENTER_NAME": "EARTH",
        "REF_FRAME": "TEME",
        "TIME_SYSTEM": "UTC",
        "MEAN_ELEMENT_THEORY": "SGP4",
        "EPOCH": "2025-04-12T09:04:08.129568",
        "MEAN_MOTION": "1.86231694",
        "ECCENTRICITY": "0.00177290",
        "INCLINATION": "56.1828",
        "RA_OF_ASC_NODE": "77.1061",
        "ARG_OF_PERICENTER": "300.9015",
        "MEAN_ANOMALY": "206.9077",
        "EPHEMERIS_TYPE": "0",
        "CLASSIFICATION_TYPE": "U",
        "NORAD_CAT_ID": "44865",
        "ELEMENT_SET_NO": "999",
        "REV_AT_EPOCH": "3619",
        "BSTAR": "0.00000000000000",
        "MEAN_MOTION_DOT": "-0.00000015",
        "MEAN_MOTION_DDOT": "0.0000000000000",
        "SEMIMAJOR_AXIS": "27906.119",
        "PERIOD": "773.230",
        "APOAPSIS": "21577.459",
        "PERIAPSIS": "21478.509",
        "OBJECT_TYPE": "PAYLOAD",
        "RCS_SIZE": "LARGE",
        "COUNTRY_CODE": "PRC",
        "LAUNCH_DATE": "2019-12-16",
        "SITE": "XSC",
        "DECAY_DATE": null,
        "FILE": "4699941",
        "GP_ID": "285447592",
        "TLE_LINE0": "0 BEIDOU 3M20",
        "TLE_LINE1": "1 44865U 19090B   25102.37787187 -.00000015  00000-0  00000-0 0  9991",
        "TLE_LINE2": "2 44865  56.1828  77.1061 0017729 300.9015 206.9077  1.86231694 36195"
    }
]